0 PEGASUS R/B
1 27784U 03017B   13281.48248740  .00000407  00000-0  60585-4 0  7392
2 27784 029.0056 018.5741 0005536 067.0786 020.2562 14.60881028558239
0 PEGASUS R/B
1 27784U 03017B   13282.51020906  .00000450  00000-0  69087-4 0  7405
2 27784 029.0055 012.3091 0005508 076.8143 025.5976 14.60883359558384
0 PEGASUS R/B
1 27784U 03017B   13283.53789076  .00000442  00000-0  67438-4 0  7418
2 27784 029.0055 006.0441 0005497 086.7514 030.5338 14.60884053558539
0 PEGASUS R/B
1 27784U 03017B   13285.66063501  .00000464  00000-0  71974-4 0  7438
2 27784 029.0053 353.1031 0005493 107.6666 034.4079 14.60885153558846
0 PEGASUS R/B
1 27784U 03017B   13287.50593117  .00000507  00000-0  80632-4 0  7444
2 27784 029.0052 341.8538 0005464 125.4700 019.5219 14.60886828559117
0 PEGASUS R/B
1 27784U 03017B   13288.53088565  .00000669  00000-0  11309-3 0  7458
2 27784 029.0051 335.6052 0005448 135.4852 010.0261 14.60888377559269
0 PEGASUS R/B
1 27784U 03017B   13289.55201368  .00000576  00000-0  94321-4 0  7463
2 27784 029.0051 329.3800 0005430 145.5717 340.3018 14.60889467559410
0 PEGASUS R/B
1 27784U 03017B   13290.57927855  .00000577  00000-0  94607-4 0  7472
2 27784 029.0050 323.1175 0005413 155.5975 342.9777 14.60890378559563
0 PEGASUS R/B
1 27784U 03017B   13292.20542823  .00000598  00000-0  98804-4 0  7489
2 27784 029.0049 313.2039 0005373 171.5853 255.2496 14.60891600559808
0 PEGASUS R/B
1 27784U 03017B   13293.51720512  .00000656  00000-0  11046-3 0  7495
2 27784 029.0049 305.2073 0005269 184.7901 313.8651 14.60893364559994
0 PEGASUS R/B
1 27784U 03017B   13295.14305582  .00000695  00000-0  11820-3 0  7507
2 27784 029.0048 295.2953 0005248 200.9034 224.4535 14.60895249560234
